     2.10           N: GPS NAV DATA                         RINEX VERSION / TYPE
teqc  2006Dec12     UNAVCO Archive Ops  20061228 04:13:46UTCPGM / RUN BY / DATE
Solaris 5.9|UltraSparc IIIi|cc -xarch=v9 SC5.8|=+-|*Sparc   COMMENT
    14                                                      LEAP SECONDS
                                                            END OF HEADER
13 06 12 27 10  0  0.0 1.265644095838D-04 3.865352482535D-12 0.000000000000D+00
    1.120000000000D+02 1.656250000000D+01 3.776943039124D-09-2.434526678665D-02
    6.575137376785D-07 2.942115301266D-03 9.657815098763D-06 5.153678623199D+03
    2.952000000000D+05-2.607703208923D-08-1.328911076172D+00 5.215406417847D-08
    9.933911160531D-01 2.139062500000D+02 1.259569316586D+00-7.796396179766D-09
    2.264380034803D-10 0.000000000000D+00 1.407000000000D+03 0.000000000000D+00
    2.000000000000D+00 0.000000000000D+00-1.117587089539D-08 3.680000000000D+02
    2.881500000000D+05 4.000000000000D+00
27 06 12 27 10  0  0.0 8.535291999578D-05 2.046363078989D-12 0.000000000000D+00
    3.400000000000D+01-1.184375000000D+01 4.756626704023D-09 2.041410650685D+00
   -1.013278961182D-06 2.040227688849D-02 5.312263965607D-06 5.153788740158D+03
    2.952000000000D+05 1.695007085800D-07-3.741291653300D-01-4.395842552185D-07
    9.619116000963D-01 2.784687500000D+02-1.864422943259D+00-8.098194465162D-09
    2.275094766829D-10 0.000000000000D+00 1.407000000000D+03 0.000000000000D+00
    2.000000000000D+00 0.000000000000D+00-4.190951585770D-09 3.400000000000D+01
    2.911800000000D+05 4.000000000000D+00
 4 06 12 27 10  0  0.0 3.497623838484D-04 3.069544618484D-12 0.000000000000D+00
    2.190000000000D+02 5.603125000000D+01 5.071996983319D-09 2.176693619706D+00
    2.902001142502D-06 7.755370461382D-03 5.688518285751D-06 5.153718189240D+03
    2.952000000000D+05-9.126961231232D-08 2.844076941095D+00 1.117587089539D-08
    9.475646074236D-01 2.653437500000D+02 2.258039173652D-01-8.464281142713D-09
    1.250052069686D-11 0.000000000000D+00 1.407000000000D+03 0.000000000000D+00
    2.000000000000D+00 0.000000000000D+00-5.587935447693D-09 2.190000000000D+02
    2.919300000000D+05 4.000000000000D+00
 1 06 12 27  9 59 44.0 9.777536615729D-05 2.273736754432D-12 0.000000000000D+00
    1.990000000000D+02 8.656250000000D+00 3.813730285746D-09-1.605031820955D+00
    6.053596735001D-07 6.690357229672D-03 8.672475814819D-06 5.153729595184D+03
    2.951840000000D+05 5.587935447693D-08-1.315317893001D+00 1.303851604462D-07
    9.892268275766D-01 2.271562500000D+02-1.769245889473D+00-7.730321998940D-09
    2.164375869228D-10 0.000000000000D+00 1.407000000000D+03 0.000000000000D+00
    2.000000000000D+00 0.000000000000D+00-3.259629011154D-09 1.990000000000D+02
    2.933400000000D+05 4.000000000000D+00
 1 06 12 27 11 59 44.0 9.779166430235D-05 2.273736754432D-12 0.000000000000D+00
    2.000000000000D+02-3.281250000000D+00 3.893019302737D-09-5.551395653912D-01
   -1.192092895508D-07 6.689109955914D-03 9.389594197273D-06 5.153725677490D+03
    3.023840000000D+05-7.078051567078D-08-1.315374347010D+00 4.097819328308D-08
    9.892278340642D-01 2.173750000000D+02-1.768995284291D+00-7.874613723555D-09
    2.432244169875D-10 0.000000000000D+00 1.407000000000D+03 0.000000000000D+00
    2.000000000000D+00 0.000000000000D+00-3.259629011154D-09 2.000000000000D+02
    2.952000000000D+05 4.000000000000D+00
 4 06 12 27 12  0  0.0 3.497847355902D-04 3.069544618484D-12 0.000000000000D+00
    2.200000000000D+02 5.253125000000D+01 4.989850704453D-09-3.056390538911D+00
    2.706423401833D-06 7.754607475363D-03 5.431473255157D-06 5.153719818115D+03
    3.024000000000D+05-2.421438694000D-08 2.844016196347D+00-6.146728992462D-08
    9.475651882021D-01 2.707500000000D+02 2.258596706361D-01-8.372491605025D-09
    3.321566928024D-11 0.000000000000D+00 1.407000000000D+03 0.000000000000D+00
    2.000000000000D+00 0.000000000000D+00-5.587935447693D-09 2.200000000000D+02
    2.952000000000D+05 4.000000000000D+00
13 06 12 27 12  0  0.0 1.265923492610D-04 3.865352482535D-12 0.000000000000D+00
    1.130000000000D+02 1.165625000000D+01 3.719083486184D-09 1.025806488501D+00
    5.103647708893D-07 2.941179089248D-03 8.963048458099D-06 5.153677127838D+03
    3.024000000000D+05-6.146728992462D-08-1.328967198098D+00 2.607703208923D-08
    9.933927062450D-01 2.219687500000D+02 1.259591021902D+00-7.784609974538D-09
    2.253665302777D-10 0.000000000000D+00 1.407000000000D+03 0.000000000000D+00
    2.000000000000D+00 0.000000000000D+00-1.117587089539D-08 3.690000000000D+02
    2.952000000000D+05 4.000000000000D+00
16 06 12 27 12  0  0.0 1.061502844095D-04 3.979039320257D-12 0.000000000000D+00
    1.830000000000D+02-6.646875000000D+01 4.694124100539D-09 2.648927472908D+00
   -3.201887011528D-06 3.552889451385D-03 8.067116141319D-06 5.153568479538D+03
    3.024000000000D+05 4.284083843231D-08 7.460179081946D-01 2.980232238770D-08
    9.629772364386D-01 2.255937500000D+02-7.581175778173D-01-8.081050893921D-09
   -2.600108304947D-10 0.000000000000D+00 1.407000000000D+03 0.000000000000D+00
    2.000000000000D+00 0.000000000000D+00-9.778887033463D-09 4.390000000000D+02
    2.952000000000D+05 4.000000000000D+00
20 06 12 27 12  0  0.0-2.187024801970D-05-1.136868377216D-13 0.000000000000D+00
    3.900000000000D+01-1.768750000000D+01 4.548046587253D-09 2.613243566964D+00
   -9.238719940186D-07 2.898967475630D-03 6.794929504395D-06 5.153627262115D+03
    3.024000000000D+05 1.862645149231D-09-2.418683423622D+00-9.313225746155D-09
    9.548818105916D-01 2.459375000000D+02 1.277980578026D+00-8.200698734876D-09
   -1.835790753768D-10 0.000000000000D+00 1.407000000000D+03 0.000000000000D+00
    2.000000000000D+00 0.000000000000D+00-6.519258022308D-09 3.900000000000D+01
    2.952000000000D+05 4.000000000000D+00
23 06 12 27 12  0  0.0 1.439894549549D-04 1.136868377216D-12 0.000000000000D+00
    2.120000000000D+02 3.125000000000D+00 4.214461263514D-09 2.177245938575D-01
    1.750886440277D-07 4.691512207501D-03 8.549541234970D-06 5.153705917358D+03
    3.024000000000D+05 1.117587089539D-08-1.360539079777D+00-5.960464477539D-08
    9.696873505475D-01 2.189375000000D+02 2.589425423208D+00-8.061764376274D-09
    2.314382117591D-10 0.000000000000D+00 1.407000000000D+03 0.000000000000D+00
    2.000000000000D+00 0.000000000000D+00-2.095475792885D-08 2.120000000000D+02
    2.952000000000D+05 4.000000000000D+00
25 06 12 27 12  0  0.0 3.970474936068D-04-7.275957614183D-12 0.000000000000D+00
    1.950000000000D+02 5.531250000000D+00 4.909490214259D-09-1.763104530118D+00
    6.146728992462D-07 1.290629873984D-02 6.111338734627D-06 5.153716764450D+03
    3.024000000000D+05-1.005828380585D-07-4.069616610724D-01 3.110617399216D-07
    9.573295373264D-01 2.613125000000D+02-1.305865110318D+00-8.258915445550D-09
    2.864405028253D-10 0.000000000000D+00 1.407000000000D+03 0.000000000000D+00
    4.000000000000D+00 0.000000000000D+00-6.984919309616D-09 4.510000000000D+02
    2.952000000000D+05 4.000000000000D+00
27 06 12 27 12  0  0.0 8.536735549569D-05 2.046363078989D-12 0.000000000000D+00
    3.500000000000D+01-8.375000000000D+00 4.749483549340D-09 3.091510419715D+00
   -5.699694156647D-07 2.040185057558D-02 5.181878805161D-06 5.153789661407D+03
    3.024000000000D+05 2.998858690262D-07-3.741865687725D-01-2.402812242508D-07
    9.619134770202D-01 2.786875000000D+02-1.864410935628D+00-7.992118618106D-09
    2.171519023912D-10 0.000000000000D+00 1.407000000000D+03 0.000000000000D+00
    2.000000000000D+00 0.000000000000D+00-4.190951585770D-09 3.500000000000D+01
    2.952000000000D+05 4.000000000000D+00
 8 06 12 27 12  0  0.0-9.114202111959D-05-1.477928890381D-12 0.000000000000D+00
    2.130000000000D+02-1.625000000000D+01 4.556618372874D-09-1.979982430879D+00
   -8.530914783478D-07 9.841670980677D-03 5.902722477913D-06 5.153746685028D+03
    3.024000000000D+05-1.564621925354D-07-2.687563683586D-01-1.136213541031D-07
    9.762989546788D-01 2.800000000000D+02 2.736613938475D+00-8.166054434659D-09
    2.546534644818D-10 0.000000000000D+00 1.407000000000D+03 0.000000000000D+00
    2.800000000000D+00 0.000000000000D+00-3.725290298462D-09 4.690000000000D+02
    2.956800000000D+05 4.000000000000D+00
19 06 12 27 11 59 44.0 4.956359043717D-05 4.433786671143D-12 0.000000000000D+00
    1.930000000000D+02 3.037500000000D+01 4.524117019062D-09 1.188672763278D+00
    1.432374119759D-06 3.479187842458D-03 1.014582812786D-05 5.153688684464D+03
    3.023840000000D+05 6.519258022308D-08 1.844141064563D+00-8.195638656616D-08
    9.574214758760D-01 1.796875000000D+02-9.989934720194D-01-8.012476608955D-09
   -2.928693420408D-11 0.000000000000D+00 1.407000000000D+03 0.000000000000D+00
    2.000000000000D+00 0.000000000000D+00-1.443549990654D-08 1.930000000000D+02
    2.987100000000D+05 4.000000000000D+00
28 06 12 27 12  0  0.0 1.099472865462D-05-1.023181539495D-12 0.000000000000D+00
    1.050000000000D+02-5.912500000000D+01 4.645907806423D-09 1.881574918965D+00
   -3.218650817871D-06 1.201233849861D-02 9.026378393173D-06 5.153686134338D+03
    3.024000000000D+05-2.868473529816D-07 7.553263710837D-01-1.639127731323D-07
    9.610586618023D-01 2.101875000000D+02-2.230379193435D+00-8.086765417668D-09
   -2.239378993409D-10 0.000000000000D+00 1.407000000000D+03 0.000000000000D+00
    2.000000000000D+00 0.000000000000D+00-1.024454832077D-08 1.050000000000D+02
    3.006600000000D+05 4.000000000000D+00
